ORBCOMM FM37            
1 33064U 08031E   24199.22162119  .00003516  00000+0  52456-3 0  9996
2 33064  48.4391 132.8414 0005902  18.7505 125.3505 14.76822434864800
ORBCOMM FM40            
1 33065U 08031F   24199.22443887  .00004434  00000+0  63261-3 0  9997
2 33065  48.4417 121.5232 0007079  29.7017 123.2785 14.78242387864970
VESSELSAT 1             
1 37840U 11058C   24199.45412477  .00000447  00000+0  99463-4 0  9995
2 37840  19.9630 319.1138 0013796 104.6077 255.5858 14.11175404659195
ORBCOMM FM109           
1 40086U 14040A   24198.37979151  .00001631  00000+0  39784-3 0  9997
2 40086  47.0028 160.8145 0002089 236.9920 123.0765 14.56819832532074
ORBCOMM FM107           
1 40087U 14040B   24199.30514939  .00001194  00000+0  30108-3 0  9996
2 40087  47.0045 157.4252 0001120 217.5998 142.4809 14.56824430532322
ORBCOMM FM106           
1 40088U 14040C   24199.49512458  .00003049  00000+0  56589-3 0  9993
2 40088  47.0615   4.6212 0018142 310.0855  49.8445 14.67306229534497
ORBCOMM FM111           
1 40089U 14040D   24198.64036457  .00001562  00000+0  21834-3 0  9993
2 40089  47.0044 261.7391 0032556  27.0735 333.1850 14.82230995540371
ORBCOMM FM104           
1 40090U 14040E   24199.34667445  .00001088  00000+0  28687-3 0  9996
2 40090  47.0039 186.9127 0016032 115.5069 244.7475 14.55298420531924
